#dP2022  4 17  0  0  0.00000000      96 __u+U ITR00 EXT  IAC
## 2206      0.00000000   900.00000000 59686 0.0000000000000
+  117   C06C07C08C09C10C11C12C13C14C16C19C20C21C22C23C24C25
+        C26C27C28C29C30C32C33C34C35C36C37C38C39C40C41C42C43
+        C44C45C46E01E02E03E04E05E07E08E09E10E11E12E13E14E15
+        E18E19E21E24E25E26E27E30E31E33E34E36G01G02G03G04G05
+        G06G07G08G09G10G11G12G13G14G15G16G17G18G19G20G21G22
+        G23G24G25G26G27G28G29G30G31G32J02J03R01R02R03R04R05
+        R07R08R09R11R12R13R14R15R17R18R19R20R21R22R24  0  0
++        11 10  9 10  9  9  8  9  9 10  8  9  8  8 10  7  8
++         6  9  8  9  8 10  8  8  8  9  9 10 10 11  8  8  7
++         8  8  9  8  8  8  7  8  8  8  8  6  7  8  8  7  7
++         7  8  7  7  8  7  7  8  8  8  9  8  7  8  8  7  8
++         7  7  8  8  7  0  6  8  8  8  6  7  6  7  9  8  8
++         8  7  7  7  7  8  7  7 10  7 10  9  7  8  7  7  9
++        10  7  8  8  9  8  8  8  9  9  9 10  9  9  9  0  0
%c M  cc GPS ccc cccc cccc cccc cccc ccccc ccccc ccccc ccccc
%c cc cc ccc ccc cccc cccc cccc cccc ccccc ccccc ccccc ccccc
%f  0.0000000  0.000000000  0.00000000000  0.000000000000000
%f  0.0000000  0.000000000  0.00000000000  0.000000000000000
%i    0    0    0    0      0      0      0      0         0
%i    0    0    0    0      0      0      0      0         0
/* IAC                                ULTRA-RAPID PREDICTION
/* S/V CLOCKS ARE ALIGNED TO GNSS TIME                      
/* G:C1WC2W R:C1PC2P E:C1XC5X C:C2IC6I J:C1CC2S             
/* PCV:IGS14_2196 OL/AL:FES2004  NONE     YN ORB:CoN CLK:CoN
*  2022 04 17 22  0  0.00000000
PC06 -12535.730148  23404.937686  32731.212625   -185.801832
PC07 -14873.650868  39403.662833  -3302.541295     -6.485472
PC08    259.379088  31441.241801 -28010.329418    264.599554
PC09   -494.711193  24658.164461  34557.879387   -705.872751
PC10  -8853.287247  40186.651633 -10023.516822    135.890106
PC11 -15242.630813  12872.771224 -19462.501958    298.045416
PC12 -27183.826767   3799.719135  -5026.488895   -627.199115
PC13   7440.765638  35737.238223 -20719.807089    -57.792075
PC14 -13937.208312  24162.903491  -1551.102524    459.298893
PC16 -15062.943980  22525.953492  32409.092290    120.561287
PC19   7507.431484 -25711.205775  -7757.504524    877.381097
PC20  17491.880758 -19722.921434   9124.401457   -881.459195
PC21 -17607.367254   1497.127132 -21580.971540   -130.774224
PC22  -7250.570020 -17027.813385 -20868.600610   -968.617904
PC23  15381.562377  23254.992347  -1140.245152   -932.441317
PC24 -13540.754653   9032.542641  22655.180727   -954.427068
PC25   2714.296367  23483.979296  14804.582638   -749.534143
PC26 -20260.271825  -8377.412279  17273.255866    750.338701
PC27  27592.974520   2022.888012  -3748.893087    709.426102
PC28  16839.385454  12422.723087 -18463.683550     56.480608
PC29   3773.059350 -15925.460996  22593.367616    542.732254
PC30  22647.474244 -10193.473663  12742.669614    497.102629
PC32  17593.288014  -1524.120531  21626.031287   -963.099785
PC33  -7383.855400  25792.925072   7727.475169   -967.530563
PC34 -21907.159679  10703.019858 -13564.395435   -423.313166
PC35 -16361.676300 -12287.611069  18946.025210    233.474880
PC36  -1759.537931 -23351.778673 -15159.604645   -964.084719
PC37  20140.517583   9923.740874 -16546.581732   -922.395149
PC38  -6719.050125  27717.663734 -30973.785240    225.872082
PC39 -21291.505038  21718.726694  29157.237903     34.946511
PC40 -21293.546622  36483.428461   -921.987995    261.696001
PC41   7022.935755  17420.267596  20696.214465   -967.198657
PC42 -17758.974842  19095.701921  -9917.029583   -952.686287
PC43  -4581.743517  15994.149397 -22412.004022   -929.359821
PC44 -27587.469381  -1173.877811   3884.133372    631.079893
PC45 -15539.436041 -23150.730130   1406.229696    733.987828
PC46  12439.735257 -10486.940598 -22674.751911   -277.357867
PE01  16348.857633  -4286.123340 -24304.476477   -618.345906
PE02 -16324.573151   4449.931454  24279.517325    293.484140
PE03 -26570.152732   9791.128047  -8640.560741   -549.072939
PE04  19228.948363 -20359.762971  -9574.191087  -1008.765027
PE05 -18426.036838  -6763.160024 -22148.893851   -189.893103
PE07   -312.430846  19145.315237  22586.041152   -659.627732
PE08 -18948.200248  20476.124645   9917.265025   -514.064358
PE09    129.243631 -18949.376610 -22726.869521   -487.782533
PE10    251.250970 -17250.848118  24043.180582   -507.350513
PE11 -10804.940323 -19616.113331  19333.283618   3929.336511
PE12  10846.248668 -12396.392475  24593.308869   4657.806997
PE13  10208.601129  19497.359958 -19799.065653    428.093656
PE14  10054.090402  17370.524955 -23974.266662  -1817.665801
PE15 -10898.251947  12283.024560 -24622.965355    751.059397
PE18 -20099.821150  -5801.495340  15281.494537  -1552.694035
PE19  26394.998175  -7878.258593  10850.127867  -3184.964621
PE21  14338.809791  16479.112069 -19977.332756   -729.048190
PE24  -3050.877020 -29329.264907   2721.334691   -566.548022
PE25 -14243.371649 -16753.267771  19819.261997   -570.764528
PE26  25513.106416  14820.505575  -2407.544553  -1042.091374
PE27   3975.512327  29062.060466  -3924.437648   -278.563856
PE30  -9327.233599  23703.182368  15051.153941   -438.983072
PE31   8632.626855 -24443.453894 -14292.585940   -495.228382
PE33  25493.577755   2149.845882  14903.480886   -457.514214
PE34 -25406.123413  -1934.904122 -15072.224287   -512.577364
PE36 -25156.259263 -15210.678987   3390.269072   -361.115376
PG01  22502.570619  14307.473968   1885.696659    382.716880
PG02  -8634.382399 -18755.162910  17279.928602   -653.151177
PG03  12886.425047  11421.298935  20148.790844   -210.704522
PG04  20088.724039   4116.843823  16934.622578   -175.070842
PG05  -6176.851701 -23799.813536 -10007.962928    -78.668698
PG06   7221.152442 -12812.858842  22178.557571    270.430761
PG07  21717.973231   1932.851712 -15104.991215    320.465208
PG08  12076.690990  10472.806181 -21302.973704    -64.366020
PG09  24533.432966  -5633.069812   8455.723515   -343.042452
PG10 -11516.168147  18468.177859 -14871.751549   -382.761900
PG11  -7680.324254 -19849.316161  15893.844237    -38.361508
PG12 -10387.881778 -15868.191431  18375.142205   -201.913343
PG13  -2387.283851 -15046.345326 -21897.537499    295.964653
PG14  13012.819105 -17245.854669 -15400.024366   -103.191326
PG15 -14077.123771  -9468.344083 -20904.554699    -68.149876
PG16    295.617538  25547.837414  -6578.307302   -492.649009
PG17  20874.018987 -14469.713486   8290.827246    601.644060
PG18 -21425.335918  -2186.032932 -15619.773542    192.954235
PG19  16257.561033 -15546.475909  13702.228979    145.715045
PG20  -1737.230444 -26626.246009    551.855259    515.777730
PG21  19095.591985  17063.385324  -7585.676008    160.523258
PG22 -12874.443504  16979.522225  16151.259484    244.980390
PG23 -14692.260017   7537.422660 -20790.652847    -15.694849
PG24 -22028.575528 -15033.892994  -2786.629837    255.132932
PG25 -15134.418899   -904.368909  21517.770263    313.296430
PG26  -4886.757107  25238.438436   5911.331913    199.357278
PG27   -692.319966  16284.913013 -21097.090235    185.404999
PG28   9269.380190 -23705.058014  -7473.900476    370.378448
PG29 -24682.420051   2860.790275   9418.696606   -504.170578
PG30  16174.402645  -6563.629807 -20006.261469   -524.219455
PG31  -5478.500894  14612.951172  21313.189980   -173.855181
PG32 -18473.058983  16474.806986   9510.164153   -107.605891
PJ02 -26755.440644  26103.611597  24379.363012     -2.802492
PJ03 -31966.253341  16431.565665 -17424.207335     -1.594650
PR01   4529.636504 -19007.747359 -16380.636900      7.868202
PR02 -10057.940522  -4731.338448 -22906.526778    515.838999
PR03 -17671.406349  11057.489598 -14612.918400     55.097893
PR04 -15316.773728  20325.783817   1685.686951    137.207678
PR05  -4582.159402  18390.798429  17077.038778     91.319721
PR07  17844.267685 -11609.903365  14130.648273     33.978409
PR08  15260.466355 -20383.148505  -1658.642934    -64.653696
PR09  14032.497020  16862.144362 -13065.478679     50.325316
PR11   3390.931823 -16014.845438 -19550.070729     40.942514
PR12  -7488.501880 -24032.613602  -4168.868357     17.983731
PR13 -13639.259655 -17828.889697  12098.105363    -21.025392
PR14 -11855.666807   -154.069726  22591.154557     76.634953
PR15  -3202.161393  16656.270076  19068.378416     96.750080
PR17 -24379.029832   -315.230385  -7548.587829    518.405090
PR18 -13420.354415   7109.650025 -20464.686601    113.906360
PR19   2990.205734  10887.949030 -22876.480876   -185.749993
PR20  21412.368713   8915.971869 -10666.210656    -68.830815
PR21  23862.189812   -262.809088   8981.460463   -294.144077
PR22  12782.905140  -7263.433951  20857.842586   -177.545637
PR24 -21940.105040  -8387.953294   9968.588037     89.548998
EOF
